STARLINK-34466          
1 66226C 25244W   26098.43034722  .00045250  00000+0  15250-2 0   989
2 66226  53.1592  91.7286 0001351  81.4597 272.2714 15.30170865    18
STARLINK-34882          
1 66227C 25244X   26098.35812500  .00029924  00000+0  10083-2 0   988
2 66227  53.1590  92.0286 0001496  76.1961 256.9147 15.30183324    10
STARLINK-35731          
1 66228C 25244Y   26098.40881944  .00052924  00000+0  17822-2 0   987
2 66228  53.1587  91.7594 0001581  79.6765 190.2164 15.30193089    18
STARLINK-35758          
1 66229C 25244Z   26098.38034722  .00033231  00000+0  11200-2 0   983
2 66229  53.1585  91.8682 0001128  82.8871  41.7900 15.30174481    10
STARLINK-35736          
1 66230C 25244AA  26098.37756944  .00031727  00000+0  10693-2 0   984
2 66230  53.1604  92.0630 0001358  81.4510 294.8455 15.30175099    12
STARLINK-35735          
1 66231C 25244AB  26098.39562500  .00064410  00000+0  21716-2 0   983
2 66231  53.1577  91.7278 0001375  85.7736 157.9072 15.30148200    10
STARLINK-35753          
1 66232C 25244AC  26098.45326389  .00049285  00000+0  16610-2 0   984
2 66232  53.1574  91.9989 0001216  83.2131 204.8911 15.30168572    13
STARLINK-35626          
1 66233C 25244AD  26098.46576389  .00038441  00000+0  12957-2 0   985
2 66233  53.1575  91.9054 0001301  81.0374 293.4190 15.30168546    12
STARLINK-35537          
1 66234C 25245A   26098.38381944 -.00014356  00000+0 -48385-3 0   985
2 66234  53.1577 145.8118 0001314  83.2720 329.3432 15.30198596    14
STARLINK-35541          
1 66235C 25245B   26098.46298611  .00000875  00000+0  29508-4 0   989
2 66235  53.1574 145.4097 0001271  83.3564  63.0634 15.30188935    15
STARLINK-35454          
1 66236C 25245C   26098.37687500 -.00036793  00000+0 -12401-2 0   981
2 66236  53.1577 146.1861 0001394  81.8740 117.9730 15.30209286    10
STARLINK-35557          
1 66237C 25245D   26098.37965278 -.00016962  00000+0 -57174-3 0   986
2 66237  53.1580 146.1383 0001161  51.5735 181.0403 15.30196851    16
STARLINK-35556          
1 66238C 25245E   26098.39770833 -.00040199  00000+0 -13548-2 0   985
2 66238  53.1581 146.0310 0001281  81.0979 262.6545 15.30212392    10
STARLINK-35554          
1 66239C 25245F   26098.45604167  .00013253  00000+0  44671-3 0   980
2 66239  53.1580 145.7374 0001303  77.1503 239.7586 15.30181202    15
STARLINK-35546          
1 66240C 25245G   26098.37479167 -.00024163  00000+0 -81445-3 0   987
2 66240  53.1572 145.8052 0001373  77.0310 309.0946 15.30200186    18
STARLINK-35497          
1 66241C 25245H   26098.42479167 -.00010010  00000+0 -33738-3 0   982
2 66241  53.1568 145.5267 0001555  79.7475 245.2364 15.30194086    18
STARLINK-35480          
1 66242C 25245J   26098.44493056 -.00020511  00000+0 -69136-3 0   986
2 66242  53.1570 146.0047 0001328  85.3661  59.7911 15.30198265    11
STARLINK-35495          
1 66243C 25245K   26098.44909722  .00006230  00000+0  21005-3 0   982
2 66243  53.1566 145.3785 0001450  85.7041  30.7039 15.30177265    17
STARLINK-35517          
1 66244C 25245L   26098.38173611 -.00012407  00000+0 -41783-3 0   986
2 66244  53.1567 145.6219 0001539  79.3482  60.5798 15.30224037    13
STARLINK-35503          
1 66245C 25245M   26098.37201389 -.00014936  00000+0 -50346-3 0   984
2 66245  53.1572 146.3082 0001261  84.1540  36.5542 15.30194403    10
STARLINK-35434          
1 66246C 25245N   26098.46090278  .00012195  00000+0  41109-3 0   988
2 66246  53.1581 145.6771 0001203  76.6887 284.4683 15.30179739    19
STARLINK-35481          
1 66247C 25245P   26098.36576389 -.00006976  00000+0 -23513-3 0   981
2 66247  53.1583 146.0840 0001273  82.7988 131.4299 15.30192015    17
STARLINK-35416          
1 66248C 25245Q   26098.46784722 -.00016542  00000+0 -55731-3 0   982
2 66248  53.1587 145.5758 0001564  87.0308 347.2632 15.30211052    12
STARLINK-35304          
1 66249C 25245R   26098.43034722 -.00000732  00000+0 -24672-4 0   983
2 66249  53.1579 145.6111 0001354  79.2937 218.1487 15.30188249    11
STARLINK-35338          
1 66250C 25245S   26098.38243056 -.00022904  00000+0 -77199-3 0   987
2 66250  53.1585 145.9374 0001473  80.3324 260.6549 15.30200889    15
STARLINK-35485          
1 66251C 25245T   26098.44284722 -.00009049  00000+0 -30503-3 0   983
2 66251  53.1584 145.5880 0001328  82.0456 266.8463 15.30192116    13
STARLINK-35483          
1 66252C 25245U   26098.42895833  .00000983  00000+0  33123-4 0   981
2 66252  53.1566 145.4904 0001388  78.6261 275.1491 15.30190023    10
STARLINK-35486          
1 66253C 25245V   26098.44076389  .00008557  00000+0  28841-3 0   986
2 66253  53.1582 145.7443 0001509  67.1347 194.6583 15.30184552    10
STARLINK-35488          
1 66254C 25245W   26098.37479167 -.00014032  00000+0 -47298-3 0   984
2 66254  53.1582 146.0840 0001348  80.8545 159.8662 15.30195870    15
STARLINK-35616          
1 66255C 25245X   26098.41159722 -.00008936  00000+0 -30118-3 0   981
2 66255  53.1580 145.9933 0001020  54.9288 347.9325 15.30193584    14
STARLINK-35619          
1 66256C 25245Y   26098.39909722 -.00004852  00000+0 -16350-3 0   987
2 66256  53.1567 145.5459 0001344  81.5290 148.2535 15.30197965    19
STARLINK-35615          
1 66257C 25245Z   26098.39979167 -.00021938  00000+0 -73942-3 0   982
2 66257  53.1565 145.6124 0001322  83.5215 115.3053 15.30201230    14
STARLINK-34650          
1 66258C 25245AA  26098.41020833 -.00024472  00000+0 -82483-3 0   989
2 66258  53.1567 145.5988 0001508  80.5664 158.2244 15.30202478    18
STARLINK-35529          
1 66259C 25245AB  26098.37409722 -.00012511  00000+0 -42170-3 0   983
2 66259  53.1585 145.9484 0001424  74.6558 232.0322 15.30195932    11
STARLINK-35420          
1 66260C 25245AC  26098.44909722 -.00015511  00000+0 -52251-3 0   982
2 66260  53.1586 145.6349 0001533  79.7510 262.8812 15.30214856    18
STARLINK-35536          
1 66261C 25245AD  26098.43381944  .00002314  00000+0  77987-4 0   981
2 66261  53.1582 145.6027 0001559  66.4659 244.3008 15.30186228    16
STARLINK-35487          
1 66262C 25245AE  26098.37687500 -.00026036  00000+0 -87753-3 0   982
2 66262  53.1586 145.9205 0001604  75.7326 252.0900 15.30202908    18
STARLINK-35801          
1 66265C 25247A   26098.40187500  .00031750  00000+0  10699-2 0   987
2 66265  53.1590  53.1607 0001365  86.6717  20.8555 15.30180315    15
STARLINK-35056          
1 66266C 25247B   26098.44354167  .00001606  00000+0  54119-4 0   981
2 66266  53.1605  53.1831 0001301  87.4847 139.1738 15.30199655    19
STARLINK-35550          
1 66267C 25247C   26098.36715278  .00039664  00000+0  13365-2 0   988
2 66267  53.1590  53.2872 0001285  84.1641 186.2060 15.30179169    15
STARLINK-35069          
1 66268C 25247D   26098.45326389 -.00000478  00000+0 -16106-4 0   981
2 66268  53.1581  53.4373 0001044  80.4875  48.5441 15.30195096    15
STARLINK-34910          
1 66269C 25247E   26098.42826389  .00018076  00000+0  60915-3 0   981
2 66269  53.1606  53.2203 0001309  85.4827  51.2028 15.30186364    10
STARLINK-35757          
1 66270C 25247F   26098.44145833 -.00007413  00000+0 -24981-3 0   981
2 66270  53.1604  53.0890 0001257  83.4358 184.0967 15.30200198    18
STARLINK-35745          
1 66271C 25247G   26098.36854167  .00054805  00000+0  18455-2 0   983
2 66271  53.1585  53.7371 0001357  76.0135 352.5905 15.30193083    18
STARLINK-35741          
1 66272C 25247H   26098.38729167  .00041018  00000+0  13823-2 0   983
2 66272  53.1585  53.1361 0001149  82.5963 351.0878 15.30173811    12
STARLINK-35730          
1 66273C 25247J   26098.39145833  .00036474  00000+0  12290-2 0   984
2 66273  53.1598  53.2634 0001614  88.6732 292.3584 15.30180378    16
STARLINK-35760          
1 66274C 25247K   26098.42618056  .00012539  00000+0  42254-3 0   981
2 66274  53.1581  53.5143 0001180  89.6132 273.4103 15.30189670    11
STARLINK-35752          
1 66275C 25247L   26098.41576389  .00021170  00000+0  71342-3 0   984
2 66275  53.1593  53.4701 0001251  81.5758 270.5621 15.30184036    12
STARLINK-35742          
1 66276C 25247M   26098.38451389  .00034188  00000+0  11522-2 0   989
2 66276  53.1603  53.5121 0001259  88.5090 143.7397 15.30176718    15
STARLINK-35708          
1 66277C 25247N   26098.36368056  .00055143  00000+0  18583-2 0   984
2 66277  53.1609  53.5044 0001306  83.2242  86.5375 15.30168356    19
STARLINK-35713          
1 66278C 25247P   26098.41368056  .00018354  00000+0  61848-3 0   987
2 66278  53.1582  52.9640 0001162  88.2718 154.1260 15.30187749    10
STARLINK-35724          
1 66279C 25247Q   26098.45881944 -.00012244  00000+0 -41259-3 0   986
2 66279  53.1581  53.4306 0001256  89.7067  58.3119 15.30202784    17
STARLINK-35726          
1 66280C 25247R   26098.38034722  .00042189  00000+0  14217-2 0   986
2 66280  53.1590  53.2116 0001340  81.2090 290.9339 15.30175399    12
STARLINK-35727          
1 66281C 25247S   26098.37756944  .00045917  00000+0  15470-2 0   987
2 66281  53.1581  53.7613 0001278  83.7554 359.6872 15.30181477    11
STARLINK-35776          
1 66282C 25247T   26098.43173611  .00011464  00000+0  38630-3 0   983
2 66282  53.1582  53.4620 0001241  87.6419 317.6413 15.30191056    10
STARLINK-35774          
1 66283C 25247U   26098.41576389  .00019638  00000+0  66191-3 0   985
2 66283  53.1589  53.4899 0001299  89.5160 250.9992 15.30180352    11
STARLINK-35830          
1 66284C 25247V   26098.37062500  .00050005  00000+0  16852-2 0   987
2 66284  53.1594  53.6533 0001242  84.6913  30.2976 15.30168641    13
STARLINK-35819          
1 66285C 25247W   26098.39770833  .00028944  00000+0  97541-3 0   987
2 66285  53.1600  53.4695 0001342  87.3545 205.9870 15.30180699    12
STARLINK-35783          
1 66286C 25247X   26098.43451389  .00014034  00000+0  47293-3 0   989
2 66286  53.1605  53.2522 0001304  90.4465  69.0218 15.30188677    18
